{
  "norad_id": 68651,
  "name": "QIANFAN-124",
  "history": [
    {
      "epoch": "2026-04-15T14:27:49.990752Z",
      "apogee_km": 813.2974018412651,
      "perigee_km": 792.7432061594645,
      "latitude_deg": -5.4507968983779986e-06,
      "longitude_deg": -92.93496151917479,
      "height_km": 816.2641453014606,
      "semi_major_axis_km": 7181.157304000365,
      "eccentricity": 0.00143112,
      "inclination_deg": 88.9915,
      "raan_deg": 327.7857,
      "arg_perigee_deg": 188.0255,
      "mean_anomaly_deg": 172.0712,
      "mean_motion_rev_day": 14.26629177
    },
    {
      "epoch": "2026-04-17T22:02:06.240192Z",
      "apogee_km": 815.5760122073625,
      "perigee_km": 794.1570140315926,
      "latitude_deg": 3.888500338007461e-05,
      "longitude_deg": 150.94730972260353,
      "height_km": 818.6397405875732,
      "semi_major_axis_km": 7183.003513119477,
      "eccentricity": 0.00149095,
      "inclination_deg": 88.9911,
      "raan_deg": 327.5179,
      "arg_perigee_deg": 180.5517,
      "mean_anomaly_deg": 179.5663,
      "mean_motion_rev_day": 14.26079194
    },
    {
      "epoch": "2026-04-18T14:52:30.789120Z",
      "apogee_km": 815.6487243807178,
      "perigee_km": 794.0843421533564,
      "latitude_deg": -9.306358840104555e-06,
      "longitude_deg": -102.42787871939633,
      "height_km": 818.7069422734396,
      "semi_major_axis_km": 7183.003533267037,
      "eccentricity": 0.00150107,
      "inclination_deg": 88.9909,
      "raan_deg": 327.4366,
      "arg_perigee_deg": 178.2365,
      "mean_anomaly_deg": 181.8884,
      "mean_motion_rev_day": 14.26079188
    }
  ]
}